COSMOS 2588             
1 64095U 25109A   26068.81179522  .00009169  00000+0  32611-3 0  9998
2 64095  72.9704  73.5401 0005019 308.6780  51.3966 15.29122656 44425
STARLINK-34835          
1 65336U 25189P   26068.70016919  .00031046  00000+0  10560-2 0  9990
2 65336  53.1609 207.0333 0001282  75.1205 284.9938 15.30197170 31102
